GLOBALSTAR M069         
1 31573U 07020C   26186.07681097 -.00000071  00000+0  19459-3 0  9998
2 31573  51.9996 201.4915 0001916 187.7184 207.7512 12.23471969880997
GLOBALSTAR M072         
1 31574U 07020D   26186.02150507 -.00000070  00000+0  19891-3 0  9990
2 31574  51.9942  52.7663 0001597  14.4867 133.2616 11.91658598877101
GLOBALSTAR M066         
1 32265U 07048C   26185.53584878 -.00000097  00000+0 -18207-4 0  9996
2 32265  51.9612   8.1104 0005713  79.8467 314.3397 12.30387894862365
GLOBALSTAR M079         
1 37188U 10054A   26186.05081149 -.00000089  00000+0  84039-4 0  9993
2 37188  52.0046  54.2911 0001050  60.4707  86.8626 12.62266452724801
GLOBALSTAR M074         
1 37189U 10054B   26186.08098524 -.00000090  00000+0  78084-4 0  9997
2 37189  52.0026  53.4614 0000823  77.2991  87.3477 12.62261935725418
GLOBALSTAR M076         
1 37190U 10054C   26186.02441811 -.00000090  00000+0  76800-4 0  9998
2 37190  52.0039  53.8386 0001043  73.5085  73.8647 12.62262063725122
GLOBALSTAR M077         
1 37191U 10054D   26185.35628940 -.00000069  00000+0  16519-3 0  9990
2 37191  51.9935 135.7168 0002441 203.9150 325.8394 11.67547948723140
GLOBALSTAR M075         
1 37192U 10054E   26186.11484753 -.00000070  00000+0  19078-3 0  9993
2 37192  51.9943  95.6069 0000575  49.0300  89.7650 12.62267688724201
GLOBALSTAR M073         
1 37193U 10054F   26185.77085113 -.00000098  00000+0  33233-4 0  9992
2 37193  52.0073  10.7684 0001112  80.9165 292.3319 12.62266821726158
GLOBALSTAR M083         
1 37739U 11033A   26185.62527810 -.00000082  00000+0  12169-3 0  9992
2 37739  51.9877 319.4166 0000925  93.4041 279.3564 12.62263814695152
GLOBALSTAR M088         
1 37740U 11033B   26186.07602152 -.00000097  00000+0  39619-4 0  9993
2 37740  52.0190 224.5162 0000277 153.3301 227.2444 12.62269264690756
GLOBALSTAR M091         
1 37741U 11033C   26186.01192594 -.00000113  00000+0 -52954-4 0  9999
2 37741  51.9966 187.6488 0000155 355.4248  34.4954 12.62264129691532
GLOBALSTAR M085         
1 37742U 11033D   26185.92152884 -.00000093  00000+0  58065-4 0  9992
2 37742  52.0109 139.2306 0000534  17.4911  21.4946 12.62264211692034
GLOBALSTAR M081         
1 37743U 11033E   26186.28859213 -.00000091  00000+0  72301-4 0  9990
2 37743  51.9941 140.5290 0000445  42.0353 105.5250 12.62265328692222
GLOBALSTAR M089         
1 37744U 11033F   26186.16991723 -.00000077  00000+0  14810-3 0  9995
2 37744  51.9929  95.0463 0000594  80.4983  68.5401 12.62267539693059
GLOBALSTAR M084         
1 38040U 11080A   26185.67833848 -.00000087  00000+0  93909-4 0  9993
2 38040  52.0027 324.0335 0001037 114.2678 259.7855 12.62267759670970
GLOBALSTAR M080         
1 38041U 11080B   26185.64965721 -.00000095  00000+0  51039-4 0  9994
2 38041  52.0081 325.8451 0000410  82.4452 291.2697 12.62265472671098
GLOBALSTAR M082         
1 38042U 11080C   26185.69818544 -.00000080  00000+0  13367-3 0  9995
2 38042  52.0081 281.2010 0000331 113.3798  50.7180 12.62263928671802
GLOBALSTAR M092         
1 38043U 11080D   26185.98900819 -.00000081  00000+0  12939-3 0  9990
2 38043  52.0098  10.7127 0000848  89.0137  76.5019 12.62267507670290
GLOBALSTAR M090         
1 38044U 11080E   26185.21740355 -.00000074  00000+0  16688-3 0  9991
2 38044  52.0126 276.6260 0000535 105.7516 271.4525 12.62252830671869
GLOBALSTAR M086         
1 38045U 11080F   26185.55474844 -.00000060  00000+0  24320-3 0  9993
2 38045  51.9898 275.5000 0001654  96.0259 277.4929 12.62287673671859
GLOBALSTAR M097         
1 39072U 13005A   26185.74178698 -.00000112  00000+0 -44981-4 0  9997
2 39072  52.0014 189.8984 0000199  41.7022 318.3860 12.62271324619125
GLOBALSTAR M093         
1 39073U 13005B   26186.03171167 -.00000112  00000+0 -44297-4 0  9995
2 39073  52.0074 182.3687 0000394  32.9519 327.1373 12.62266163619111
GLOBALSTAR M094         
1 39074U 13005C   26186.18993143 -.00000080  00000+0  13342-3 0  9997
2 39074  51.9958  95.9861 0000837  44.0249 316.0685 12.62268565620742
GLOBALSTAR M096         
1 39075U 13005D   26185.88672094 -.00000102  00000+0  97224-5 0  9991
2 39075  52.0049 145.7236 0000492  22.9871 337.1018 12.62265597619620
GLOBALSTAR M078         
1 39076U 13005E   26186.09736626 -.00000093  00000+0  60825-4 0  9993
2 39076  51.9850 229.0702 0000614 306.0953  53.9857 12.62260025618271
GLOBALSTAR M095         
1 39077U 13005F   26185.80733168 -.00000099  00000+0  27670-4 0  9997
2 39077  52.0059 227.5822 0000171   0.2575 359.8291 12.62263922618091
GLOBALSTAR M087         
1 52888U 22064A   26185.97885702 -.00000102  00000+0  92027-5 0  9991
2 52888  52.0011   8.2871 0000946  70.5591 289.5378 12.62269307193388
